NOAA 18                 
1 28654U 05018A   26027.77504598  .00000126  00000+0  89839-4 0  9990
2 28654  98.8230 109.4408 0014239 185.9938 174.1066 14.13701378 66478